{
  "norad_id": 58858,
  "name": "STARLINK-31226",
  "history": [
    {
      "epoch": "2026-03-28T14:30:51.345216Z",
      "apogee_km": 483.88101270650895,
      "perigee_km": 482.2576512883579,
      "latitude_deg": 4.934461694921358e-06,
      "longitude_deg": 98.50245146778121,
      "height_km": 482.60998969860543,
      "semi_major_axis_km": 6861.206331997433,
      "eccentricity": 0.0001183,
      "inclination_deg": 43.0044,
      "raan_deg": 142.2392,
      "arg_perigee_deg": 286.9283,
      "mean_anomaly_deg": 73.1439,
      "mean_motion_rev_day": 15.27573242
    }
  ]
}